UNKNOWN                 
1 85217U          25305.71003378  .00003453  00000+0  92524-3 0  9996
2 85217  98.0312  42.8012 0208512 252.1271 105.7079 14.36718524621967
UNKNOWN                 
1 85237U          25301.49798667  .00004906  00000+0  10732-2 0  9995
2 85237  65.5350 333.5415 0511538  48.4748 315.9051 13.99983230602013
UNKNOWN                 
1 85238U          25306.56930191  .00000068  00000+0  91511-4 0  9990
2 85238  99.0558 236.9093 0062713 310.0071 225.0343 13.88331115605269
UNKNOWN                 
1 85246U          25306.28710182  .00001754  00000+0  63681-3 0  9993
2 85246  97.9881 313.5897 0225032  63.4614 298.9445 14.21261628617326
UNKNOWN                 
1 85373U          25302.31169181  .00002980  00000+0  20540-2 0  9999
2 85373 100.4213 332.2652 0047422 354.3652  66.8761 13.99696129605919
UNKNOWN                 
1 87014U          25305.65190593  .00003036  00000+0  46809-2 0  9993
2 87014 100.4958 267.6533 0057367 340.3032 201.4546 13.51580379585365
UNKNOWN                 
1 87042U          25305.36379150  .00000953  00000+0  59090-3 0  9992
2 87042  98.7194 350.0619 0043313 210.4071 149.4585 14.07000213548140
UNKNOWN                 
1 87051U          25304.83952375  .00002547  00000+0  87935-3 0  9999
2 87051  65.7307 354.1983 0718712 160.5430 202.4633 13.45694732582941
UNKNOWN                 
1 87054U          25306.59153624  .00002329  00000+0  13290-2 0  9997
2 87054 100.0925 181.0963 0013551  88.0992 272.1727 14.10822807610662
UNKNOWN                 
1 87071U          25305.66367782  .00008595  00000+0  30494-2 0  9991
2 87071  61.2212  33.8593 0484612 216.8777 139.8002 13.84973430596794
UNKNOWN                 
1 87113U          25279.10108060  .01762118  14827-2  71219-2 0  9993
2 87113  65.5997 277.2947 0031772 239.2111 120.5927 15.85548661625569
UNKNOWN                 
1 87129U          25304.98928084  .00000185  00000+0  16653-2 0  9995
2 87129 102.2641  35.4565 0034297 164.7509 195.4596 12.42793650541480
